[
  {
    "OBJECT_NAME": "STARLINK-3257",
    "OBJECT_ID": "21125AZ",
    "EPOCH": "2025-11-11T07:39:11.714976",
    "MEAN_MOTION": 15.08838599,
    "ECCENTRICITY": 0.0001073,
    "INCLINATION": 53.2179,
    "RA_OF_ASC_NODE": 50.5927,
    "ARG_OF_PERICENTER": 87.1903,
    "MEAN_ANOMALY": 272.9212,
    "EPHEMERIS_TYPE": 0,
    "CLASSIFICATION_TYPE": "U",
    "NORAD_CAT_ID": 50203,
    "ELEMENT_SET_NO": 999,
    "REV_AT_EPOCH": 21892,
    "BSTAR": 7.171800000000001e-05,
    "MEAN_MOTION_DOT": 8.54e-06,
    "MEAN_MOTION_DDOT": 0.0,
    "TLE_LINE1": "1 50203U 21125AZ  25315.31888559  .00000854  00000+0  71718-4 0  9998",
    "TLE_LINE2": "2 50203  53.2179  50.5927 0001073  87.1903 272.9212 15.08838599218929",
    "COMMENT": "Grouped by shell and plane from TLE"
  },
  {
    "OBJECT_NAME": "STARLINK-3254",
    "OBJECT_ID": "21125BA",
    "EPOCH": "2025-11-11T07:02:05.455680",
    "MEAN_MOTION": 15.08825528,
    "ECCENTRICITY": 0.0001404,
    "INCLINATION": 53.2151,
    "RA_OF_ASC_NODE": 50.6315,
    "ARG_OF_PERICENTER": 56.9182,
    "MEAN_ANOMALY": 303.1945,
    "EPHEMERIS_TYPE": 0,
    "CLASSIFICATION_TYPE": "U",
    "NORAD_CAT_ID": 50204,
    "ELEMENT_SET_NO": 999,
    "REV_AT_EPOCH": 21891,
    "BSTAR": 0.00027525,
    "MEAN_MOTION_DOT": 4.094e-05,
    "MEAN_MOTION_DDOT": 0.0,
    "TLE_LINE1": "1 50204U 21125BA  25315.29311870  .00004094  00000+0  27525-3 0  9999",
    "TLE_LINE2": "2 50204  53.2151  50.6315 0001404  56.9182 303.1945 15.08825528218910",
    "COMMENT": "Grouped by shell and plane from TLE"
  },
  {
    "OBJECT_NAME": "STARLINK-3258",
    "OBJECT_ID": "21125BC",
    "EPOCH": "2025-11-11T06:51:27.977472",
    "MEAN_MOTION": 15.08847271,
    "ECCENTRICITY": 0.0001366,
    "INCLINATION": 53.2168,
    "RA_OF_ASC_NODE": 50.5493,
    "ARG_OF_PERICENTER": 103.1051,
    "MEAN_ANOMALY": 257.0094,
    "EPHEMERIS_TYPE": 0,
    "CLASSIFICATION_TYPE": "U",
    "NORAD_CAT_ID": 50206,
    "ELEMENT_SET_NO": 999,
    "REV_AT_EPOCH": 21678,
    "BSTAR": 0.00031221,
    "MEAN_MOTION_DOT": 4.685e-05,
    "MEAN_MOTION_DDOT": 0.0,
    "TLE_LINE1": "1 50206U 21125BC  25315.28574048  .00004685  00000+0  31221-3 0  9992",
    "TLE_LINE2": "2 50206  53.2168  50.5493 0001366 103.1051 257.0094 15.08847271216787",
    "COMMENT": "Grouped by shell and plane from TLE"
  },
  {
    "OBJECT_NAME": "STARLINK-3262",
    "OBJECT_ID": "21125BD",
    "EPOCH": "2025-11-11T05:35:54.984192",
    "MEAN_MOTION": 15.08841136,
    "ECCENTRICITY": 0.0001644,
    "INCLINATION": 53.216,
    "RA_OF_ASC_NODE": 50.8924,
    "ARG_OF_PERICENTER": 89.1414,
    "MEAN_ANOMALY": 270.9766,
    "EPHEMERIS_TYPE": 0,
    "CLASSIFICATION_TYPE": "U",
    "NORAD_CAT_ID": 50207,
    "ELEMENT_SET_NO": 999,
    "REV_AT_EPOCH": 21684,
    "BSTAR": 0.0,
    "MEAN_MOTION_DOT": -4.36e-06,
    "MEAN_MOTION_DDOT": 0.0,
    "TLE_LINE1": "1 50207U 21125BD  25315.23327528 -.00000436  00000+0 -92796-5 0  9995",
    "TLE_LINE2": "2 50207  53.2160  50.8924 0001644  89.1414 270.9766 15.08841136216848",
    "COMMENT": "Grouped by shell and plane from TLE"
  },
  {
    "OBJECT_NAME": "STARLINK-4691",
    "OBJECT_ID": "22104A",
    "EPOCH": "2025-11-11T06:25:38.663904",
    "MEAN_MOTION": 15.08847651,
    "ECCENTRICITY": 0.0002141,
    "INCLINATION": 53.2184,
    "RA_OF_ASC_NODE": 55.9835,
    "ARG_OF_PERICENTER": 87.1824,
    "MEAN_ANOMALY": 272.9414,
    "EPHEMERIS_TYPE": 0,
    "CLASSIFICATION_TYPE": "U",
    "NORAD_CAT_ID": 53588,
    "ELEMENT_SET_NO": 999,
    "REV_AT_EPOCH": 17821,
    "BSTAR": 0.00010131,
    "MEAN_MOTION_DOT": 1.325e-05,
    "MEAN_MOTION_DDOT": 0.0,
    "TLE_LINE1": "1 53588U 22104A   25315.26780861  .00001325  00000+0  10131-3 0  9991",
    "TLE_LINE2": "2 53588  53.2184  55.9835 0002141  87.1824 272.9414 15.08847651178210",
    "COMMENT": "Grouped by shell and plane from TLE"
  },
  {
    "OBJECT_NAME": "STARLINK-4673",
    "OBJECT_ID": "22104B",
    "EPOCH": "2025-11-11T07:34:30.444960",
    "MEAN_MOTION": 15.08838588,
    "ECCENTRICITY": 0.0001461,
    "INCLINATION": 53.219,
    "RA_OF_ASC_NODE": 55.5725,
    "ARG_OF_PERICENTER": 88.1607,
    "MEAN_ANOMALY": 271.9553,
    "EPHEMERIS_TYPE": 0,
    "CLASSIFICATION_TYPE": "U",
    "NORAD_CAT_ID": 53589,
    "ELEMENT_SET_NO": 999,
    "REV_AT_EPOCH": 17807,
    "BSTAR": 8.7161e-05,
    "MEAN_MOTION_DOT": 1.099e-05,
    "MEAN_MOTION_DDOT": 0.0,
    "TLE_LINE1": "1 53589U 22104B   25315.31563015  .00001099  00000+0  87161-4 0  9994",
    "TLE_LINE2": "2 53589  53.2190  55.5725 0001461  88.1607 271.9553 15.08838588178072",
    "COMMENT": "Grouped by shell and plane from TLE"
  },
  {
    "OBJECT_NAME": "STARLINK-4689",
    "OBJECT_ID": "22104C",
    "EPOCH": "2025-11-11T06:20:20.444928",
    "MEAN_MOTION": 15.0884347,
    "ECCENTRICITY": 0.0001809,
    "INCLINATION": 53.2196,
    "RA_OF_ASC_NODE": 55.9618,
    "ARG_OF_PERICENTER": 92.9601,
    "MEAN_ANOMALY": 267.1598,
    "EPHEMERIS_TYPE": 0,
    "CLASSIFICATION_TYPE": "U",
    "NORAD_CAT_ID": 53590,
    "ELEMENT_SET_NO": 999,
    "REV_AT_EPOCH": 17808,
    "BSTAR": 7.782500000000001e-05,
    "MEAN_MOTION_DOT": 9.51e-06,
    "MEAN_MOTION_DDOT": 0.0,
    "TLE_LINE1": "1 53590U 22104C   25315.26412552  .00000951  00000+0  77825-4 0  9991",
    "TLE_LINE2": "2 53590  53.2196  55.9618 0001809  92.9601 267.1598 15.08843470178081",
    "COMMENT": "Grouped by shell and plane from TLE"
  },
  {
    "OBJECT_NAME": "STARLINK-4674",
    "OBJECT_ID": "22104D",
    "EPOCH": "2025-11-11T06:15:02.343456",
    "MEAN_MOTION": 15.08832683,
    "ECCENTRICITY": 0.0001119,
    "INCLINATION": 53.2188,
    "RA_OF_ASC_NODE": 55.9378,
    "ARG_OF_PERICENTER": 86.2489,
    "MEAN_ANOMALY": 273.8631,
    "EPHEMERIS_TYPE": 0,
    "CLASSIFICATION_TYPE": "U",
    "NORAD_CAT_ID": 53591,
    "ELEMENT_SET_NO": 999,
    "REV_AT_EPOCH": 17808,
    "BSTAR": 1.3444e-05,
    "MEAN_MOTION_DOT": -7.4e-07,
    "MEAN_MOTION_DDOT": 0.0,
    "TLE_LINE1": "1 53591U 22104D   25315.26044379 -.00000074  00000+0  13444-4 0  9994",
    "TLE_LINE2": "2 53591  53.2188  55.9378 0001119  86.2489 273.8631 15.08832683178086",
    "COMMENT": "Grouped by shell and plane from TLE"
  },
  {
    "OBJECT_NAME": "STARLINK-4672",
    "OBJECT_ID": "22104E",
    "EPOCH": "2025-11-11T06:11:06.640800",
    "MEAN_MOTION": 15.08838185,
    "ECCENTRICITY": 0.0001102,
    "INCLINATION": 53.2169,
    "RA_OF_ASC_NODE": 55.9198,
    "ARG_OF_PERICENTER": 94.7935,
    "MEAN_ANOMALY": 265.3183,
    "EPHEMERIS_TYPE": 0,
    "CLASSIFICATION_TYPE": "U",
    "NORAD_CAT_ID": 53592,
    "ELEMENT_SET_NO": 999,
    "REV_AT_EPOCH": 17806,
    "BSTAR": 0.0,
    "MEAN_MOTION_DOT": -8.95e-06,
    "MEAN_MOTION_DDOT": 0.0,
    "TLE_LINE1": "1 53592U 22104E   25315.25771575 -.00000895  00000+0 -38146-4 0  9997",
    "TLE_LINE2": "2 53592  53.2169  55.9198 0001102  94.7935 265.3183 15.08838185178067",
    "COMMENT": "Grouped by shell and plane from TLE"
  },
  {
    "OBJECT_NAME": "STARLINK-4681",
    "OBJECT_ID": "22104G",
    "EPOCH": "2025-11-11T07:23:53.317536",
    "MEAN_MOTION": 15.08839045,
    "ECCENTRICITY": 0.0001492,
    "INCLINATION": 53.2168,
    "RA_OF_ASC_NODE": 55.5305,
    "ARG_OF_PERICENTER": 91.2978,
    "MEAN_ANOMALY": 268.8185,
    "EPHEMERIS_TYPE": 0,
    "CLASSIFICATION_TYPE": "U",
    "NORAD_CAT_ID": 53594,
    "ELEMENT_SET_NO": 999,
    "REV_AT_EPOCH": 17821,
    "BSTAR": 3.0547000000000004e-05,
    "MEAN_MOTION_DOT": 1.98e-06,
    "MEAN_MOTION_DDOT": 0.0,
    "TLE_LINE1": "1 53594U 22104G   25315.30825599  .00000198  00000+0  30547-4 0  9992",
    "TLE_LINE2": "2 53594  53.2168  55.5305 0001492  91.2978 268.8185 15.08839045178218",
    "COMMENT": "Grouped by shell and plane from TLE"
  },
  {
    "OBJECT_NAME": "STARLINK-4684",
    "OBJECT_ID": "22104H",
    "EPOCH": "2025-11-11T05:53:48.324480",
    "MEAN_MOTION": 15.08838491,
    "ECCENTRICITY": 8.93e-05,
    "INCLINATION": 53.2171,
    "RA_OF_ASC_NODE": 55.8486,
    "ARG_OF_PERICENTER": 57.4901,
    "MEAN_ANOMALY": 302.6177,
    "EPHEMERIS_TYPE": 0,
    "CLASSIFICATION_TYPE": "U",
    "NORAD_CAT_ID": 53595,
    "ELEMENT_SET_NO": 999,
    "REV_AT_EPOCH": 17806,
    "BSTAR": 5.4847000000000005e-05,
    "MEAN_MOTION_DOT": 5.85e-06,
    "MEAN_MOTION_DDOT": 0.0,
    "TLE_LINE1": "1 53595U 22104H   25315.24569820  .00000585  00000+0  54847-4 0  9997",
    "TLE_LINE2": "2 53595  53.2171  55.8486 0000893  57.4901 302.6177 15.08838491178065",
    "COMMENT": "Grouped by shell and plane from TLE"
  },
  {
    "OBJECT_NAME": "STARLINK-4676",
    "OBJECT_ID": "22104L",
    "EPOCH": "2025-11-11T06:52:02.703360",
    "MEAN_MOTION": 15.08843145,
    "ECCENTRICITY": 0.0001252,
    "INCLINATION": 53.2172,
    "RA_OF_ASC_NODE": 55.3914,
    "ARG_OF_PERICENTER": 88.5344,
    "MEAN_ANOMALY": 271.5792,
    "EPHEMERIS_TYPE": 0,
    "CLASSIFICATION_TYPE": "U",
    "NORAD_CAT_ID": 53598,
    "ELEMENT_SET_NO": 999,
    "REV_AT_EPOCH": 17774,
    "BSTAR": 5.8671e-05,
    "MEAN_MOTION_DOT": 6.46e-06,
    "MEAN_MOTION_DDOT": 0.0,
    "TLE_LINE1": "1 53598U 22104L   25315.28614240  .00000646  00000+0  58671-4 0  9998",
    "TLE_LINE2": "2 53598  53.2172  55.3914 0001252  88.5344 271.5792 15.08843145177749",
    "COMMENT": "Grouped by shell and plane from TLE"
  },
  {
    "OBJECT_NAME": "STARLINK-4677",
    "OBJECT_ID": "22104N",
    "EPOCH": "2025-11-11T06:48:14.616000",
    "MEAN_MOTION": 15.08841822,
    "ECCENTRICITY": 0.0001668,
    "INCLINATION": 53.2161,
    "RA_OF_ASC_NODE": 56.0656,
    "ARG_OF_PERICENTER": 83.8753,
    "MEAN_ANOMALY": 276.2429,
    "EPHEMERIS_TYPE": 0,
    "CLASSIFICATION_TYPE": "U",
    "NORAD_CAT_ID": 53600,
    "ELEMENT_SET_NO": 999,
    "REV_AT_EPOCH": 17773,
    "BSTAR": 0.00010455000000000001,
    "MEAN_MOTION_DOT": 1.376e-05,
    "MEAN_MOTION_DDOT": 0.0,
    "TLE_LINE1": "1 53600U 22104N   25315.28350250  .00001376  00000+0  10455-3 0  9998",
    "TLE_LINE2": "2 53600  53.2161  56.0656 0001668  83.8753 276.2429 15.08841822177733",
    "COMMENT": "Grouped by shell and plane from TLE"
  }
]